COSMOS 2433 (720)       
1 32275U 07052A   22264.81737122 -.00000082  00000+0  00000+0 0  9999
2 32275  66.0781   1.4746 0003652 216.0607 171.9635  2.13104293116026
COSMOS 2432 (719)       
1 32276U 07052B   22264.98631017 -.00000081  00000+0  00000+0 0  9993
2 32276  66.0921   1.5716 0007819 325.2914 140.3865  2.13103311116029
COSMOS 2434 (721)       
1 32393U 07065A   22264.71994491  .00000038  00000+0  00000+0 0  9997
2 32393  64.3723 238.1396 0000414 147.3126  55.8661  2.13103096114723
COSMOS 2436 (723)       
1 32395U 07065C   22265.21936637  .00000035  00000+0  00000+0 0  9990
2 32395  64.3814 238.1806 0015197 351.5382  10.5942  2.13102838114676
COSMOS 2456 (730)       
1 36111U 09070A   22264.73741017  .00000054  00000+0  00000+0 0  9991
2 36111  64.3747 117.7475 0002443 333.6984  47.1284  2.13099285 99391
COSMOS 2457 (733)       
1 36112U 09070B   22265.14327435  .00000059  00000+0  00000+0 0  9997
2 36112  64.3585 117.6070 0005699 151.5738 308.6671  2.13101476 99405
COSMOS 2461 (735)       
1 36401U 10007B   22264.60847481 -.00000083  00000+0  00000+0 0  9996
2 36401  65.9620   0.3062 0018405   8.8989  76.1568  2.13103665 97742
COSMOS 2460 (732)       
1 36402U 10007C   22265.00818079 -.00000080  00000+0  00000+0 0  9990
2 36402  65.9484   0.2417 0001797 160.0439 181.0135  2.13106400 97747
COSMOS 2464 (736)       
1 37139U 10041C   22265.13044079  .00000034  00000+0  00000+0 0  9999
2 37139  63.9716 237.1528 0028447   5.8726   9.7435  2.13100805 93817
COSMOS 2476 (744)       
1 37867U 11064A   22265.08559808  .00000057  00000+0  00000+0 0  9993
2 37867  64.6625 119.1294 0020599 232.9752 321.2800  2.13101826 84747
COSMOS 2477 (745)       
1 37868U 11064B   22264.28356323  .00000047  00000+0  00000+0 0  9991
2 37868  64.6703 119.2224 0017942 234.0558 242.9785  2.13101705 84684
COSMOS 2475 (743)       
1 37869U 11064C   22264.45613303  .00000050  00000+0  00000+0 0  9999
2 37869  64.6782 119.2256 0021780 253.0544 314.5014  2.13102064 84699
COSMOS 2485 (747)       
1 39155U 13019A   22264.54354758  .00000051  00000+0  00000+0 0  9998
2 39155  64.8264 119.5968 0021133 228.8864 313.9335  2.13101994 73201
COSMOS 2492 (754)       
1 39620U 14012A   22265.14672245 -.00000080  00000+0  00000+0 0  9993
2 39620  65.8339 359.9047 0011202 319.0058   0.9241  2.13103215 66168
COSMOS 2500 (755)       
1 40001U 14032A   22264.54086282 -.00000083  00000+0  00000+0 0  9996
2 40001  65.7739 359.7786 0007808 192.0077 241.5220  2.13102303 64379
COSMOS 2501 (702K)      
1 40315U 14075A   22265.40179523  .00000033  00000+0  00000+0 0  9992
2 40315  63.6786 237.7750 0019355 212.4477 330.0337  2.13101370 60791
COSMOS 2514 (751)       
1 41330U 16008A   22264.20512417 -.00000085  00000+0  00000+0 0  9996
2 41330  65.5720 359.4588 0011687 207.6686 152.3004  2.13102800 51534
COSMOS 2516 (753)       
1 41554U 16032A   22264.41808909  .00000039  00000+0  00000+0 0  9996
2 41554  63.9046 238.1127 0014971 216.4606 211.5873  2.13106372 49140
COSMOS 2522 (752)       
1 42939U 17055A   22264.75074839  .00000038  00000+0  00000+0 0  9993
2 42939  64.1389 238.5246 0009864 245.3293 293.1253  2.13102017 38907
COSMOS 2527 (756)       
1 43508U 18053A   22265.17315598  .00000059  00000+0  00000+0 0  9995
2 43508  64.9882 119.5958 0007195 221.1453 313.4387  2.13102505 33203
COSMOS 2529 (757)       
1 43687U 18086A   22264.34563028  .00000041  00000+0  00000+0 0  9991
2 43687  64.3534 238.8801 0011811 264.2465 278.9410  2.13102106 30208
COSMOS 2534 (758)       
1 44299U 19030A   22264.48159684  .00000041  00000+0  00000+0 0  9995
2 44299  64.4256 238.7698 0014142 282.5023 139.4894  2.13101845 25857
COSMOS 2544 (759)       
1 44850U 19088A   22265.12953046  .00000059  00000+0  16595+1 0  9993
2 44850  64.9723 119.4477 0011017 255.1324 289.3706  2.13102262 21635
COSMOS 2545 (760)       
1 45358U 20018A   22264.57711513 -.00000084  00000+0  00000+0 0  9993
2 45358  64.9117 359.9748 0009327 236.0014  94.0668  2.13102670 19574
COSMOS 2547 (705K)      
1 46805U 20075A   22264.53423750  .00000040  00000+0  00000+0 0  9994
2 46805  64.6504 238.2207 0008617 246.7835 263.6144  2.13102951 14826
COSMOS 2557 (706K)      
1 52984U 22075A   22264.64611977 -.00000084  00000+0  10000-3 0  9997
2 52984  64.8150   2.1711 0011443 276.7491 197.3267  2.13101882  1625
